[{"OBJECT_NAME":"THEA","OBJECT_ID":"2018-099AQ","EPOCH":"2026-03-09T22:33:02.658240","MEAN_MOTION":15.31454284,"ECCENTRICITY":0.00065849,"INCLINATION":97.4542,"RA_OF_ASC_NODE":137.8815,"ARG_OF_PERICENTER":275.4664,"MEAN_ANOMALY":84.5826,"EPHEMERIS_TYPE":0,"CLASSIFICATION_TYPE":"U","NORAD_CAT_ID":43796,"ELEMENT_SET_NO":999,"REV_AT_EPOCH":39748,"BSTAR":0.00074635274,"MEAN_MOTION_DOT":0.00022649,"MEAN_MOTION_DDOT":0},{"OBJECT_NAME":"STARLINK-34875","OBJECT_ID":"2025-212P","EPOCH":"2026-03-09T23:15:33.499008","MEAN_MOTION":15.30207624,"ECCENTRICITY":0.00011077,"INCLINATION":53.1611,"RA_OF_ASC_NODE":344.5688,"ARG_OF_PERICENTER":97.3126,"MEAN_ANOMALY":262.8001,"EPHEMERIS_TYPE":0,"CLASSIFICATION_TYPE":"U","NORAD_CAT_ID":65689,"ELEMENT_SET_NO":999,"REV_AT_EPOCH":2728,"BSTAR":0.00099288129,"MEAN_MOTION_DOT":0.00029169,"MEAN_MOTION_DDOT":0}]
